STARLINK-1167           
1 45071U 20006AD  26068.75873230 -.00001194  00000+0 -29063-4 0  9992
2 45071  53.1604 257.5319 0001101 101.3336 258.7788 15.29348852336880
SCS-01 D                
1 63985U 25100D   26068.75607686  .00032471  00000+0  10528-2 0  9990
2 63985  97.3730 145.4097 0006346 266.2302  93.8214 15.31902149 45621
